{"type": "FeatureCollection", "features": [ {"type": "Feature", "properties": {"norad_id": 40664, "name": "SKY MEXICO-1", "group": "intelsat", "lat": 0.030582939081024337, "lon": 118.32083674385179, "alt_km": 35795.95041033829, "timestamp": "2025-12-12T07:43:20.171532+00:00", "meta": {"OBJECT_NAME": "SKY MEXICO-1", "OBJECT_ID": "2015-026B", "EPOCH": "2025-12-11T23:24:35.220960", "MEAN_MOTION": 1.00272425, "ECCENTRICITY": 0.00025713, "INCLINATION": 0.0344, "RA_OF_ASC_NODE": 76.486, "ARG_OF_PERICENTER": 199.0992, "MEAN_ANOMALY": 77.7231, "EPHEMERIS_TYPE": 0, "CLASSIFICATION_TYPE": "U", "NORAD_CAT_ID": 40664, "ELEMENT_SET_NO": 999, "REV_AT_EPOCH": 3857, "BSTAR": 0, "MEAN_MOTION_DOT": -2.26e-06, "MEAN_MOTION_DDOT": 0}, "tle": {"line1": "1 40664U 15026B   25345.97540765 -.00000226  00000+0  00000+0 0  9995", "line2": "2 40664   0.0344  76.4860 0002571 199.0992  77.7231  1.00272425 38571"}}, "geometry": {"type": "Point", "coordinates": [118.32083674385179, 0.030582939081024337]}}, {"type": "Feature", "properties": {"norad_id": 40874, "name": "INTELSAT 34 (IS-34)", "group": "intelsat", "lat": 0.005914802763528234, "lon": 141.59117195861674, "alt_km": 35784.62505640048, "timestamp": "2025-12-12T07:43:20.171544+00:00", "meta": {"OBJECT_NAME": "INTELSAT 34 (IS-34)", "OBJECT_ID": "2015-039A", "EPOCH": "2025-12-11T23:31:12.087264", "MEAN_MOTION": 1.00271493, "ECCENTRICITY": 4.138e-05, "INCLINATION": 0.0122, "RA_OF_ASC_NODE": 331.2537, "ARG_OF_PERICENTER": 194.7876, "MEAN_ANOMALY": 212.1872, "EPHEMERIS_TYPE": 0, "CLASSIFICATION_TYPE": "U", "NORAD_CAT_ID": 40874, "ELEMENT_SET_NO": 999, "REV_AT_EPOCH": 3774, "BSTAR": 0, "MEAN_MOTION_DOT": -2.77e-06, "MEAN_MOTION_DDOT": 0}, "tle": {"line1": "1 40874U 15039A   25345.98000101 -.00000277  00000+0  00000+0 0  9994", "line2": "2 40874   0.0122 331.2537 0000413 194.7876 212.1872  1.00271493 37745"}}, "geometry": {"type": "Point", "coordinates": [141.59117195861674, 0.005914802763528234]}}, {"type": "Feature", "properties": {"norad_id": 41581, "name": "INTELSAT 31 (IS-31)", "group": "intelsat", "lat": 0.006347137181985123, "lon": 102.01817639215656, "alt_km": 35789.44356894688, "timestamp": "2025-12-12T07:43:20.171556+00:00", "meta": {"OBJECT_NAME": "INTELSAT 31 (IS-31)", "OBJECT_ID": "2016-035A", "EPOCH": "2025-12-11T21:37:13.469376", "MEAN_MOTION": 1.00272085, "ECCENTRICITY": 0.0001989, "INCLINATION": 0.0172, "RA_OF_ASC_NODE": 268.6419, "ARG_OF_PERICENTER": 307.2662, "MEAN_ANOMALY": 94.1931, "EPHEMERIS_TYPE": 0, "CLASSIFICATION_TYPE": "U", "NORAD_CAT_ID": 41581, "ELEMENT_SET_NO": 999, "REV_AT_EPOCH": 3480, "BSTAR": 0, "MEAN_MOTION_DOT": -1.42e-06, "MEAN_MOTION_DDOT": 0}, "tle": {"line1": "1 41581U 16035A   25345.90085034 -.00000142  00000+0  00000+0 0  9998", "line2": "2 41581   0.0172 268.6419 0001989 307.2662  94.1931  1.00272085 34807"}}, "geometry": {"type": "Point", "coordinates": [102.01817639215656, 0.006347137181985123]}}, {"type": "Feature", "properties": {"norad_id": 41747, "name": "INTELSAT 36 (IS-36)", "group": "intelsat", "lat": -0.029227169283665293, "lon": -94.4366733755921, "alt_km": 35783.17526857665, "timestamp": "2025-12-12T07:43:20.171568+00:00", "meta": {"OBJECT_NAME": "INTELSAT 36 (IS-36)", "OBJECT_ID": "2016-053A", "EPOCH": "2025-12-11T19:58:55.649856", "MEAN_MOTION": 1.00270488, "ECCENTRICITY": 0.00016639, "INCLINATION": 0.0144, "RA_OF_ASC_NODE": 14.364, "ARG_OF_PERICENTER": 313.5424, "MEAN_ANOMALY": 121.097, "EPHEMERIS_TYPE": 0, "CLASSIFICATION_TYPE": "U", "NORAD_CAT_ID": 41747, "ELEMENT_SET_NO": 999, "REV_AT_EPOCH": 3407, "BSTAR": 0, "MEAN_MOTION_DOT": -1.6e-07, "MEAN_MOTION_DDOT": 0}, "tle": {"line1": "1 41747U 16053A   25345.83258854 -.00000016  00000+0  00000+0 0  9996", "line2": "2 41747   0.0144  14.3640 0001663 313.5424 121.0970  1.00270488 34074"}}, "geometry": {"type": "Point", "coordinates": [-94.4366733755921, -0.029227169283665293]}}, {"type": "Feature", "properties": {"norad_id": 41945, "name": "INTELSAT 32E (IS-32E)", "group": "intelsat", "lat": 0.03048396361292283, "lon": 153.9102530875717, "alt_km": 35788.66210482048, "timestamp": "2025-12-12T07:43:20.171580+00:00", "meta": {"OBJECT_NAME": "INTELSAT 32E (IS-32E)", "OBJECT_ID": "2017-007B", "EPOCH": "2025-12-11T23:34:41.752416", "MEAN_MOTION": 1.00269857, "ECCENTRICITY": 5.508e-05, "INCLINATION": 0.0364, "RA_OF_ASC_NODE": 82.8066, "ARG_OF_PERICENTER": 280.7424, "MEAN_ANOMALY": 27.8714, "EPHEMERIS_TYPE": 0, "CLASSIFICATION_TYPE": "U", "NORAD_CAT_ID": 41945, "ELEMENT_SET_NO": 999, "REV_AT_EPOCH": 3234, "BSTAR": 0, "MEAN_MOTION_DOT": -2.6e-06, "MEAN_MOTION_DDOT": 0}, "tle": {"line1": "1 41945U 17007B   25345.98242769 -.00000260  00000+0  00000+0 0  9991", "line2": "2 41945   0.0364  82.8066 0000550 280.7424  27.8714  1.00269857 32344"}}, "geometry": {"type": "Point", "coordinates": [153.9102530875717, 0.03048396361292283]}}, {"type": "Feature", "properties": {"norad_id": 42818, "name": "INTELSAT 35E (IS-35E)", "group": "intelsat", "lat": 0.007092222709293329, "lon": 162.57222392790365, "alt_km": 35786.92369822911, "timestamp": "2025-12-12T07:43:20.171592+00:00", "meta": {"OBJECT_NAME": "INTELSAT 35E (IS-35E)", "OBJECT_ID": "2017-041A", "EPOCH": "2025-12-11T23:37:11.512992", "MEAN_MOTION": 1.00273573, "ECCENTRICITY": 0.00020938, "INCLINATION": 0.0181, "RA_OF_ASC_NODE": 4.6845, "ARG_OF_PERICENTER": 256.4399, "MEAN_ANOMALY": 139.6061, "EPHEMERIS_TYPE": 0, "CLASSIFICATION_TYPE": "U", "NORAD_CAT_ID": 42818, "ELEMENT_SET_NO": 999, "REV_AT_EPOCH": 3093, "BSTAR": 0, "MEAN_MOTION_DOT": -2.29e-06, "MEAN_MOTION_DDOT": 0}, "tle": {"line1": "1 42818U 17041A   25345.98416103 -.00000229  00000+0  00000+0 0  9999", "line2": "2 42818   0.0181   4.6845 0002093 256.4399 139.6061  1.00273573 30933"}}, "geometry": {"type": "Point", "coordinates": [162.57222392790365, 0.007092222709293329]}}, {"type": "Feature", "properties": {"norad_id": 42950, "name": "INTELSAT 37E (IS-37E)", "group": "intelsat", "lat": 0.0012223110697098059, "lon": 179.0671265387915, "alt_km": 35783.25246153158, "timestamp": "2025-12-12T07:43:20.171604+00:00", "meta": {"OBJECT_NAME": "INTELSAT 37E (IS-37E)", "OBJECT_ID": "2017-059A", "EPOCH": "2025-12-11T23:41:56.059296", "MEAN_MOTION": 1.0027224, "ECCENTRICITY": 0.00030792, "INCLINATION": 0.0019, "RA_OF_ASC_NODE": 81.2338, "ARG_OF_PERICENTER": 175.8183, "MEAN_ANOMALY": 161.3746, "EPHEMERIS_TYPE": 0, "CLASSIFICATION_TYPE": "U", "NORAD_CAT_ID": 42950, "ELEMENT_SET_NO": 999, "REV_AT_EPOCH": 3018, "BSTAR": 0, "MEAN_MOTION_DOT": -1.32e-06, "MEAN_MOTION_DDOT": 0}, "tle": {"line1": "1 42950U 17059A   25345.98745439 -.00000132  00000+0  00000+0 0  9995", "line2": "2 42950   0.0019  81.2338 0003079 175.8183 161.3746  1.00272240 30187"}}, "geometry": {"type": "Point", "coordinates": [179.0671265387915, 0.0012223110697098059]}}, {"type": "Feature", "properties": {"norad_id": 43632, "name": "AZERSPACE 2 (IS-38)", "group": "intelsat", "lat": -0.033401375939791304, "lon": -117.80255702978403, "alt_km": 35780.42753269182, "timestamp": "2025-12-12T07:43:20.171616+00:00", "meta": {"OBJECT_NAME": "AZERSPACE 2 (IS-38)", "OBJECT_ID": "2018-074A", "EPOCH": "2025-12-11T06:30:38.803680", "MEAN_MOTION": 1.00271658, "ECCENTRICITY": 0.00014523, "INCLINATION": 0.0184, "RA_OF_ASC_NODE": 0.4784, "ARG_OF_PERICENTER": 266.8936, "MEAN_ANOMALY": 315.6295, "EPHEMERIS_TYPE": 0, "CLASSIFICATION_TYPE": "U", "NORAD_CAT_ID": 43632, "ELEMENT_SET_NO": 999, "REV_AT_EPOCH": 2656, "BSTAR": 0, "MEAN_MOTION_DOT": 1.43e-06, "MEAN_MOTION_DDOT": 0}, "tle": {"line1": "1 43632U 18074A   25345.27128245  .00000143  00000+0  00000+0 0  9994", "line2": "2 43632   0.0184   0.4784 0001452 266.8936 315.6295  1.00271658 26568"}}, "geometry": {"type": "Point", "coordinates": [-117.80255702978403, -0.033401375939791304]}}, {"type": "Feature", "properties": {"norad_id": 43633, "name": "HORIZONS-3E", "group": "intelsat", "lat": 0.015353468997717766, "lon": 6.107085319702223, "alt_km": 35786.78220722809, "timestamp": "2025-12-12T07:43:20.171627+00:00", "meta": {"OBJECT_NAME": "HORIZONS-3E", "OBJECT_ID": "2018-074B", "EPOCH": "2025-12-11T19:27:03.434688", "MEAN_MOTION": 1.00268276, "ECCENTRICITY": 0.0001075, "INCLINATION": 0.0429, "RA_OF_ASC_NODE": 180.5458, "ARG_OF_PERICENTER": 99.0829, "MEAN_ANOMALY": 261.9041, "EPHEMERIS_TYPE": 0, "CLASSIFICATION_TYPE": "U", "NORAD_CAT_ID": 43633, "ELEMENT_SET_NO": 999, "REV_AT_EPOCH": 2646, "BSTAR": 0, "MEAN_MOTION_DOT": -2.3e-07, "MEAN_MOTION_DDOT": 0}, "tle": {"line1": "1 43633U 18074B   25345.81045642 -.00000023  00000+0  00000+0 0  9992", "line2": "2 43633   0.0429 180.5458 0001075  99.0829 261.9041  1.00268276 26460"}}, "geometry": {"type": "Point", "coordinates": [6.107085319702223, 0.015353468997717766]}}, {"type": "Feature", "properties": {"norad_id": 44333, "name": "AT&T T-16", "group": "intelsat", "lat": 0.023059323559129624, "lon": 96.22079451743052, "alt_km": 35784.66029565538, "timestamp": "2025-12-12T07:43:20.171639+00:00", "meta": {"OBJECT_NAME": "AT&T T-16", "OBJECT_ID": "2019-034A", "EPOCH": "2025-12-11T21:35:28.635936", "MEAN_MOTION": 1.0027134, "ECCENTRICITY": 7.803e-05, "INCLINATION": 0.0303, "RA_OF_ASC_NODE": 77.076, "ARG_OF_PERICENTER": 80.9177, "MEAN_ANOMALY": 145.8602, "EPHEMERIS_TYPE": 0, "CLASSIFICATION_TYPE": "U", "NORAD_CAT_ID": 44333, "ELEMENT_SET_NO": 999, "REV_AT_EPOCH": 2375, "BSTAR": 0, "MEAN_MOTION_DOT": -1.07e-06, "MEAN_MOTION_DDOT": 0}, "tle": {"line1": "1 44333U 19034A   25345.89963699 -.00000107  00000+0  00000+0 0  9999", "line2": "2 44333   0.0303  77.0760 0000780  80.9177 145.8602  1.00271340 23750"}}, "geometry": {"type": "Point", "coordinates": [96.22079451743052, 0.023059323559129624]}}]}